GLOBALSTAR M069         
1 31573U 07020C   26182.50822333 -.00000068  00000+0  22800-3 0  9992
2 31573  52.0001 211.5924 0002002 179.7330 330.5646 12.23471723880552
GLOBALSTAR M072         
1 31574U 07020D   26182.63697010 -.00000068  00000+0  22453-3 0  9993
2 31574  51.9938  61.7764 0001562   7.1243  14.5247 11.91658451876701
GLOBALSTAR M066         
1 32265U 07048C   26182.52608617 -.00000097  00000+0 -18407-4 0  9992
2 32265  51.9599  16.7497 0005662  73.8742 302.5902 12.30387624861992
GLOBALSTAR M079         
1 37188U 10054A   26182.61580688 -.00000081  00000+0  12899-3 0  9999
2 37188  52.0044  64.7475 0000995  53.8030 316.7366 12.62266352724379
GLOBALSTAR M074         
1 37189U 10054B   26182.43991804 -.00000072  00000+0  17726-3 0  9990
2 37189  52.0025  64.5456 0000780  71.7143  99.3608 12.62261922724957
GLOBALSTAR M076         
1 37190U 10054C   26182.38717179 -.00000091  00000+0  73088-4 0  9992
2 37190  52.0036  64.9108 0001002  68.1653 103.0062 12.62261941724669
GLOBALSTAR M077         
1 37191U 10054D   26182.15150802 -.00000094  00000+0 -29194-3 0  9994
2 37191  51.9934 143.8512 0002505 198.2303 175.3685 11.67547961722773
GLOBALSTAR M075         
1 37192U 10054E   26182.04871705 -.00000095  00000+0  47660-4 0  9994
2 37192  51.9944 107.9874 0000489  41.3429 331.3029 12.62267517723693
GLOBALSTAR M073         
1 37193U 10054F   26182.52630538 -.00000089  00000+0  81293-4 0  9998
2 37193  52.0076  20.6449 0001099  74.9938 307.3540 12.62266792725749
GLOBALSTAR M083         
1 37739U 11033A   26182.17598273 -.00000084  00000+0  11114-3 0  9991
2 37739  51.9878 329.9208 0000946  88.4578  82.5589 12.62263755694714
GLOBALSTAR M088         
1 37740U 11033B   26182.43191617 -.00000074  00000+0  16398-3 0  9991
2 37740  52.0196 235.6051 0000367 147.2718 225.8341 12.62269160690290
GLOBALSTAR M091         
1 37741U 11033C   26182.36591478 -.00000101  00000+0  15452-4 0  9995
2 37741  51.9966 198.7492 0000061 337.9942  35.8428 12.62264190691070
GLOBALSTAR M085         
1 37742U 11033D   26182.21396402 -.00000120  00000+0 -89974-4 0  9992
2 37742  52.0104 150.5148 0000442   7.9255  95.1431 12.62264194691566
GLOBALSTAR M081         
1 37743U 11033E   26182.24016586 -.00000116  00000+0 -68669-4 0  9991
2 37743  51.9935 152.8553 0000342  37.8183  64.1163 12.62265315691714
GLOBALSTAR M089         
1 37744U 11033F   26182.10162922 -.00000101  00000+0  18071-4 0  9998
2 37744  51.9924 107.4334 0000548  79.5393 293.5420 12.62267420692545
GLOBALSTAR M084         
1 38040U 11080A   26182.14967383 -.00000101  00000+0  14392-4 0  9990
2 38040  52.0025 334.7757 0001075 108.7325  62.6964 12.62267665670522
GLOBALSTAR M080         
1 38041U 11080B   26182.20015294 -.00000101  00000+0  15018-4 0  9999
2 38041  52.0083 336.3451 0000422  78.2417  92.7738 12.62265498670653
GLOBALSTAR M082         
1 38042U 11080C   26182.51266997 -.00000083  00000+0  11867-3 0  9998
2 38042  52.0083 290.8970 0000407 110.2685 331.3367 12.62263811671402
GLOBALSTAR M092         
1 38043U 11080D   26182.63624900 -.00000088  00000+0  89772-4 0  9990
2 38043  52.0100  20.9180 0000848  84.4291 318.2017 12.62267304669877
GLOBALSTAR M090         
1 38044U 11080E   26182.45947075 -.00000104  00000+0 -38471-5 0  9993
2 38044  52.0130 285.0194 0000557 104.8128 333.9553 12.62252582671518
GLOBALSTAR M086         
1 38045U 11080F   26182.48152366 -.00000065  00000+0  21700-3 0  9998
2 38045  51.9902 284.8583 0001680  91.1828 350.0829 12.62287426671461
GLOBALSTAR M097         
1 39072U 13005A   26182.33688474 -.00000102  00000+0  85366-5 0  9998
2 39072  52.0014 200.2637 0000143  56.0775 304.0105 12.62271286618693
GLOBALSTAR M093         
1 39073U 13005B   26182.46842620 -.00000105  00000+0 -90503-5 0  9991
2 39073  52.0073 193.2146 0000316  33.3017 326.7870 12.62266189618667
GLOBALSTAR M094         
1 39074U 13005C   26182.07236648 -.00000116  00000+0 -66033-4 0  9998
2 39074  51.9954 108.5226 0000741  35.5951 324.4965 12.62268406620224
GLOBALSTAR M096         
1 39075U 13005D   26182.24424979 -.00000121  00000+0 -98547-4 0  9995
2 39075  52.0048 156.8116 0000381  11.1119 348.9756 12.62265669619169
GLOBALSTAR M078         
1 39076U 13005E   26182.53406687 -.00000029  00000+0  41990-3 0  9999
2 39076  51.9859 239.9216 0000534 292.4665  67.6145 12.62260182617825
GLOBALSTAR M095         
1 39077U 13005F   26182.40240876 -.00000071  00000+0  18486-3 0  9993
2 39077  52.0064 237.9464 0000089   9.1921 350.8947 12.62263842617667
GLOBALSTAR M087         
1 52888U 22064A   26182.49476533 -.00000096  00000+0  40798-4 0  9992
2 52888  52.0010  18.8941 0000922  66.0033 294.0930 12.62269295192949
